SL-16 R/B               
1 22566U 93016B   26053.01890058 -.00000030  00000+0  92596-5 0  9996
2 22566  71.0043 248.0962 0010801 335.6478  24.4133 14.15299919699950
COSMOS 2242             
1 22626U 93024A   26053.05668263  .00001539  00000+0  13296-3 0  9999
2 22626  82.5169 281.6714 0016503   3.3250 356.8078 14.96478701778059
SL-16 R/B               
1 22803U 93059B   26053.09018770  .00000095  00000+0  70910-4 0  9993
2 22803  70.9897  44.0219 0019137 237.9854 121.9410 14.17227749677323
ARIANE 40 R/B           
1 22830U 93061H   26053.12632977  .00000156  00000+0  73165-4 0  9994
2 22830  98.4952 122.3186 0009991 335.5114  24.5595 14.32851765691870
COSMOS 2278             
1 23087U 94023A   26052.82629425  .00000317  00000+0  19017-3 0  9992
2 23087  71.0517 208.2847 0007192  45.0019 315.1685 14.14367195642565
SL-16 R/B               
1 23088U 94023B   26053.16271141  .00000228  00000+0  14260-3 0  9995
2 23088  70.9991 103.4980 0005041 300.1086  59.9537 14.15011233643890
SL-16 R/B               
1 23343U 94074B   26053.10225348  .00000379  00000+0  57423-4 0  9993
2 23343  97.7131  84.5497 0005122 272.9160 150.8656 14.79387459684948
SL-16 R/B               
1 23405U 94077B   26053.07970480  .00000005  00000+0  27078-4 0  9994
2 23405  70.9840  25.3269 0003830 228.3109 131.7686 14.15563922614023
ARIANE 40+ R/B          
1 23561U 95021B   26053.17362161  .00000229  00000+0  86951-4 0  9992
2 23561  98.4531 124.8639 0006910 179.3072 207.5664 14.39759855617018
SL-16 R/B               
1 23705U 95058B   26053.15658095 -.00000224  00000+0 -90253-4 0  9991
2 23705  71.0201 212.8643 0011328 153.0696 207.1017 14.15494895565656
SL-16 R/B               
1 24298U 96051B   26052.87709046  .00000087  00000+0  73820-4 0  9990
2 24298  70.7580 208.7065 0016536 170.8437 189.2987 14.12411102519414
ORBVIEW 2 (SEASTAR)     
1 24883U 97037A   26053.15306702  .00000240  00000+0  99817-4 0  9994
2 24883  98.8538 217.0554 0003171 103.1807 256.9731 14.35481460506240
