CCSDS_OMM_VERS = 2.0
CREATION_DATE  = 
ORIGINATOR     = 

OBJECT_NAME    = SL-16 R/B
OBJECT_ID      = 1993-016B
CENTER_NAME    = EARTH
REF_FRAME      = TEME
TIME_SYSTEM    = UTC
MEAN_ELEMENT_THEORY = SGP/SGP4

EPOCH          = 2026-02-22T00:27:13.010112
MEAN_MOTION    = 14.15299919
ECCENTRICITY   = .0010801
INCLINATION    = 71.0043
RA_OF_ASC_NODE = 248.0962
ARG_OF_PERICENTER = 335.6478
MEAN_ANOMALY   = 24.4133

EPHEMERIS_TYPE = 0
CLASSIFICATION_TYPE = U
NORAD_CAT_ID   = 22566
ELEMENT_SET_NO = 999
REV_AT_EPOCH   = 69995
BSTAR          = .92596E-5
MEAN_MOTION_DOT = -.3E-6
MEAN_MOTION_DDOT = 0

CCSDS_OMM_VERS = 2.0
CREATION_DATE  = 
ORIGINATOR     = 

OBJECT_NAME    = COSMOS 2242
OBJECT_ID      = 1993-024A
CENTER_NAME    = EARTH
REF_FRAME      = TEME
TIME_SYSTEM    = UTC
MEAN_ELEMENT_THEORY = SGP/SGP4

EPOCH          = 2026-02-22T01:21:37.379232
MEAN_MOTION    = 14.96478701
ECCENTRICITY   = .0016503
INCLINATION    = 82.5169
RA_OF_ASC_NODE = 281.6714
ARG_OF_PERICENTER = 3.3250
MEAN_ANOMALY   = 356.8078

EPHEMERIS_TYPE = 0
CLASSIFICATION_TYPE = U
NORAD_CAT_ID   = 22626
ELEMENT_SET_NO = 999
REV_AT_EPOCH   = 77805
BSTAR          = .13296E-3
MEAN_MOTION_DOT = .1539E-4
MEAN_MOTION_DDOT = 0

CCSDS_OMM_VERS = 2.0
CREATION_DATE  = 
ORIGINATOR     = 

OBJECT_NAME    = SL-16 R/B
OBJECT_ID      = 1993-059B
CENTER_NAME    = EARTH
REF_FRAME      = TEME
TIME_SYSTEM    = UTC
MEAN_ELEMENT_THEORY = SGP/SGP4

EPOCH          = 2026-02-22T02:09:52.217280
MEAN_MOTION    = 14.17227749
ECCENTRICITY   = .0019137
INCLINATION    = 70.9897
RA_OF_ASC_NODE = 44.0219
ARG_OF_PERICENTER = 237.9854
MEAN_ANOMALY   = 121.9410

EPHEMERIS_TYPE = 0
CLASSIFICATION_TYPE = U
NORAD_CAT_ID   = 22803
ELEMENT_SET_NO = 999
REV_AT_EPOCH   = 67732
BSTAR          = .7091E-4
MEAN_MOTION_DOT = .95E-6
MEAN_MOTION_DDOT = 0

CCSDS_OMM_VERS = 2.0
CREATION_DATE  = 
ORIGINATOR     = 

OBJECT_NAME    = ARIANE 40 R/B
OBJECT_ID      = 1993-061H
CENTER_NAME    = EARTH
REF_FRAME      = TEME
TIME_SYSTEM    = UTC
MEAN_ELEMENT_THEORY = SGP/SGP4

EPOCH          = 2026-02-22T03:01:54.892128
MEAN_MOTION    = 14.32851765
ECCENTRICITY   = .0009991
INCLINATION    = 98.4952
RA_OF_ASC_NODE = 122.3186
ARG_OF_PERICENTER = 335.5114
MEAN_ANOMALY   = 24.5595

EPHEMERIS_TYPE = 0
CLASSIFICATION_TYPE = U
NORAD_CAT_ID   = 22830
ELEMENT_SET_NO = 999
REV_AT_EPOCH   = 69187
BSTAR          = .73165E-4
MEAN_MOTION_DOT = .156E-5
MEAN_MOTION_DDOT = 0

CCSDS_OMM_VERS = 2.0
CREATION_DATE  = 
ORIGINATOR     = 

OBJECT_NAME    = COSMOS 2278
OBJECT_ID      = 1994-023A
CENTER_NAME    = EARTH
REF_FRAME      = TEME
TIME_SYSTEM    = UTC
MEAN_ELEMENT_THEORY = SGP/SGP4

EPOCH          = 2026-02-21T19:49:51.823200
MEAN_MOTION    = 14.14367195
ECCENTRICITY   = .00071926
INCLINATION    = 71.0517
RA_OF_ASC_NODE = 208.2847
ARG_OF_PERICENTER = 45.0019
MEAN_ANOMALY   = 315.1685

EPHEMERIS_TYPE = 0
CLASSIFICATION_TYPE = U
NORAD_CAT_ID   = 23087
ELEMENT_SET_NO = 999
REV_AT_EPOCH   = 64256
BSTAR          = .19017127E-3
MEAN_MOTION_DOT = .317E-5
MEAN_MOTION_DDOT = 0

CCSDS_OMM_VERS = 2.0
CREATION_DATE  = 
ORIGINATOR     = 

OBJECT_NAME    = SL-16 R/B
OBJECT_ID      = 1994-023B
CENTER_NAME    = EARTH
REF_FRAME      = TEME
TIME_SYSTEM    = UTC
MEAN_ELEMENT_THEORY = SGP/SGP4

EPOCH          = 2026-02-22T03:54:18.265824
MEAN_MOTION    = 14.15011233
ECCENTRICITY   = .0005041
INCLINATION    = 70.9991
RA_OF_ASC_NODE = 103.4980
ARG_OF_PERICENTER = 300.1086
MEAN_ANOMALY   = 59.9537

EPHEMERIS_TYPE = 0
CLASSIFICATION_TYPE = U
NORAD_CAT_ID   = 23088
ELEMENT_SET_NO = 999
REV_AT_EPOCH   = 64389
BSTAR          = .1426E-3
MEAN_MOTION_DOT = .228E-5
MEAN_MOTION_DDOT = 0

CCSDS_OMM_VERS = 2.0
CREATION_DATE  = 
ORIGINATOR     = 

OBJECT_NAME    = SL-16 R/B
OBJECT_ID      = 1994-074B
CENTER_NAME    = EARTH
REF_FRAME      = TEME
TIME_SYSTEM    = UTC
MEAN_ELEMENT_THEORY = SGP/SGP4

EPOCH          = 2026-02-22T02:27:14.700672
MEAN_MOTION    = 14.79387459
ECCENTRICITY   = .0005122
INCLINATION    = 97.7131
RA_OF_ASC_NODE = 84.5497
ARG_OF_PERICENTER = 272.9160
MEAN_ANOMALY   = 150.8656

EPHEMERIS_TYPE = 0
CLASSIFICATION_TYPE = U
NORAD_CAT_ID   = 23343
ELEMENT_SET_NO = 999
REV_AT_EPOCH   = 68494
BSTAR          = .57423E-4
MEAN_MOTION_DOT = .379E-5
MEAN_MOTION_DDOT = 0

CCSDS_OMM_VERS = 2.0
CREATION_DATE  = 
ORIGINATOR     = 

OBJECT_NAME    = SL-16 R/B
OBJECT_ID      = 1994-077B
CENTER_NAME    = EARTH
REF_FRAME      = TEME
TIME_SYSTEM    = UTC
MEAN_ELEMENT_THEORY = SGP/SGP4

EPOCH          = 2026-02-22T01:54:46.494720
MEAN_MOTION    = 14.15563922
ECCENTRICITY   = .000383
INCLINATION    = 70.9840
RA_OF_ASC_NODE = 25.3269
ARG_OF_PERICENTER = 228.3109
MEAN_ANOMALY   = 131.7686

EPHEMERIS_TYPE = 0
CLASSIFICATION_TYPE = U
NORAD_CAT_ID   = 23405
ELEMENT_SET_NO = 999
REV_AT_EPOCH   = 61402
BSTAR          = .27078E-4
MEAN_MOTION_DOT = .5E-7
MEAN_MOTION_DDOT = 0

CCSDS_OMM_VERS = 2.0
CREATION_DATE  = 
ORIGINATOR     = 

OBJECT_NAME    = ARIANE 40+ R/B
OBJECT_ID      = 1995-021B
CENTER_NAME    = EARTH
REF_FRAME      = TEME
TIME_SYSTEM    = UTC
MEAN_ELEMENT_THEORY = SGP/SGP4

EPOCH          = 2026-02-22T04:10:00.907104
MEAN_MOTION    = 14.39759855
ECCENTRICITY   = .000691
INCLINATION    = 98.4531
RA_OF_ASC_NODE = 124.8639
ARG_OF_PERICENTER = 179.3072
MEAN_ANOMALY   = 207.5664

EPHEMERIS_TYPE = 0
CLASSIFICATION_TYPE = U
NORAD_CAT_ID   = 23561
ELEMENT_SET_NO = 999
REV_AT_EPOCH   = 61701
BSTAR          = .86951E-4
MEAN_MOTION_DOT = .229E-5
MEAN_MOTION_DDOT = 0

CCSDS_OMM_VERS = 2.0
CREATION_DATE  = 
ORIGINATOR     = 

OBJECT_NAME    = SL-16 R/B
OBJECT_ID      = 1995-058B
CENTER_NAME    = EARTH
REF_FRAME      = TEME
TIME_SYSTEM    = UTC
MEAN_ELEMENT_THEORY = SGP/SGP4

EPOCH          = 2026-02-22T03:45:28.594080
MEAN_MOTION    = 14.15494895
ECCENTRICITY   = .0011328
INCLINATION    = 71.0201
RA_OF_ASC_NODE = 212.8643
ARG_OF_PERICENTER = 153.0696
MEAN_ANOMALY   = 207.1017

EPHEMERIS_TYPE = 0
CLASSIFICATION_TYPE = U
NORAD_CAT_ID   = 23705
ELEMENT_SET_NO = 999
REV_AT_EPOCH   = 56565
BSTAR          = -.90253E-4
MEAN_MOTION_DOT = -.224E-5
MEAN_MOTION_DDOT = 0

CCSDS_OMM_VERS = 2.0
CREATION_DATE  = 
ORIGINATOR     = 

OBJECT_NAME    = SL-16 R/B
OBJECT_ID      = 1996-051B
CENTER_NAME    = EARTH
REF_FRAME      = TEME
TIME_SYSTEM    = UTC
MEAN_ELEMENT_THEORY = SGP/SGP4

EPOCH          = 2026-02-21T21:03:00.615744
MEAN_MOTION    = 14.12411102
ECCENTRICITY   = .0016536
INCLINATION    = 70.7580
RA_OF_ASC_NODE = 208.7065
ARG_OF_PERICENTER = 170.8437
MEAN_ANOMALY   = 189.2987

EPHEMERIS_TYPE = 0
CLASSIFICATION_TYPE = U
NORAD_CAT_ID   = 24298
ELEMENT_SET_NO = 999
REV_AT_EPOCH   = 51941
BSTAR          = .7382E-4
MEAN_MOTION_DOT = .87E-6
MEAN_MOTION_DDOT = 0

CCSDS_OMM_VERS = 2.0
CREATION_DATE  = 
ORIGINATOR     = 

OBJECT_NAME    = ORBVIEW 2 (SEASTAR)
OBJECT_ID      = 1997-037A
CENTER_NAME    = EARTH
REF_FRAME      = TEME
TIME_SYSTEM    = UTC
MEAN_ELEMENT_THEORY = SGP/SGP4

EPOCH          = 2026-02-22T03:40:24.990528
MEAN_MOTION    = 14.35481460
ECCENTRICITY   = .0003171
INCLINATION    = 98.8538
RA_OF_ASC_NODE = 217.0554
ARG_OF_PERICENTER = 103.1807
MEAN_ANOMALY   = 256.9731

EPHEMERIS_TYPE = 0
CLASSIFICATION_TYPE = U
NORAD_CAT_ID   = 24883
ELEMENT_SET_NO = 999
REV_AT_EPOCH   = 50624
BSTAR          = .99817E-4
MEAN_MOTION_DOT = .24E-5
MEAN_MOTION_DDOT = 0

